ORBCOMM FM115           
1 41186U 15081H   24159.88501090  .00001612  00000+0  36219-3 0  9990
2 41186  47.0001  17.4902 0000757 196.5320 163.5542 14.60782275453013
ORBCOMM FM108           
1 41187U 15081J   24158.91403776  .00001432  00000+0  35482-3 0  9997
2 41187  47.0052  77.2572 0002646  14.5034 345.5927 14.56688705452057
ORBCOMM FM117           
1 41188U 15081K   24160.11512283  .00002026  00000+0  48683-3 0  9994
2 41188  47.0015  70.4894 0002914  36.1711 323.9370 14.56653672452326
ORBCOMM FM116           
1 41189U 15081L   24159.69218908  .00000699  00000+0  19239-3 0  9992
2 41189  47.0004 162.2978 0001111 145.4994 214.5963 14.56633286451021
